[{"OBJECT_NAME":"LEMUR-2-LLOYD","OBJECT_ID":"2024-149DP","EPOCH":"2026-03-09T11:02:25.245024","MEAN_MOTION":15.07168338,"ECCENTRICITY":0.00051866,"INCLINATION":97.678,"RA_OF_ASC_NODE":149.6779,"ARG_OF_PERICENTER":125.6096,"MEAN_ANOMALY":234.5616,"EPHEMERIS_TYPE":0,"CLASSIFICATION_TYPE":"U","NORAD_CAT_ID":60577,"ELEMENT_SET_NO":999,"REV_AT_EPOCH":8536,"BSTAR":0.00080142638,"MEAN_MOTION_DOT":0.00012007,"MEAN_MOTION_DDOT":0},{"OBJECT_NAME":"STARLINK-35077","OBJECT_ID":"2025-200K","EPOCH":"2026-03-09T17:18:38.202336","MEAN_MOTION":15.05645307,"ECCENTRICITY":0.00010011,"INCLINATION":97.602,"RA_OF_ASC_NODE":139.7977,"ARG_OF_PERICENTER":115.6685,"MEAN_ANOMALY":244.4645,"EPHEMERIS_TYPE":0,"CLASSIFICATION_TYPE":"U","NORAD_CAT_ID":65529,"ELEMENT_SET_NO":999,"REV_AT_EPOCH":2913,"BSTAR":0.00026033492,"MEAN_MOTION_DOT":3.697e-5,"MEAN_MOTION_DDOT":0}]
