LEMUR-2-LLOYD           
1 60577U 24149DP  26068.46001441  .00012007  00000+0  80143-3 0  9995
2 60577  97.6780 149.6779 0005186 125.6096 234.5616 15.07168338 85367
STARLINK-35077          
1 65529U 25200K   26068.72127547  .00003697  00000+0  26033-3 0  9994
2 65529  97.6020 139.7977 0001001 115.6685 244.4645 15.05645306 29139
